OBJECT_NAME,OBJECT_ID,EPOCH,MEAN_MOTION,ECCENTRICITY,INCLINATION,RA_OF_ASC_NODE,ARG_OF_PERICENTER,MEAN_ANOMALY,EPHEMERIS_TYPE,CLASSIFICATION_TYPE,NORAD_CAT_ID,ELEMENT_SET_NO,REV_AT_EPOCH,BSTAR,MEAN_MOTION_DOT,MEAN_MOTION_DDOT
ONEWEB-0068,2020-020Y,2026-07-24T05:36:21.046752,13.11414062,.00016655,87.8899,13.6892,96.6598,263.4720,0,U,45446,999,30745,.11679101E-2,.427E-5,0
ONEWEB-0046,2020-020Z,2026-07-23T23:54:43.621344,13.11418258,.00015746,87.8890,13.7397,89.3574,270.7734,0,U,45447,999,30743,.15882605E-2,.576E-5,0
ONEWEB-0063,2020-020AA,2026-07-23T22:46:34.029408,13.11415582,.0001763,87.8900,13.7512,82.5105,277.6223,0,U,45448,999,30751,-.79589423E-3,-.269E-5,0
ONEWEB-0019,2020-020AB,2026-07-24T05:11:56.424192,13.11418878,.00020124,87.8892,13.6826,93.9283,266.2076,0,U,45449,999,30739,.10610045E-2,.389E-5,0
ONEWEB-0094,2020-020AC,2026-07-23T21:07:22.463040,13.17649968,.00017573,87.9176,358.5543,101.8209,258.3119,0,U,45450,999,31114,.26195189E-3,.115E-5,0
ONEWEB-0087,2020-020AD,2026-07-24T00:50:40.591392,13.11417220,.00016197,87.8908,13.7108,100.4897,259.6414,0,U,45451,999,30741,-.14005999E-2,-.484E-5,0
ONEWEB-0082,2020-020AE,2026-07-23T22:55:55.447104,13.11417257,.00013819,87.8898,13.7405,98.3432,261.7852,0,U,45452,999,30749,-.15378875E-2,-.532E-5,0
ONEWEB-0050,2020-020AF,2026-07-24T01:39:45.458496,14.90492201,.00037993,88.9283,228.2000,151.4936,208.6501,0,U,45453,999,34587,.1653651E-3,.1635E-4,0
ONEWEB-0034,2020-020AG,2026-07-23T23:50:05.431488,13.11418714,.00017963,87.8900,13.7424,91.1993,268.9341,0,U,45454,999,30741,.1442185E-2,.524E-5,0
ONEWEB-0060,2020-020AH,2026-07-24T00:35:01.160736,13.11415372,.00016085,87.8896,13.7312,126.3721,233.7555,0,U,45455,999,30737,-.88381207E-3,-.301E-5,0
ONEWEB-0086,2020-020AJ,2026-07-24T05:33:54.370656,13.11417054,.00021359,87.8900,13.6883,113.0311,247.1043,0,U,45456,999,30746,.15328094E-2,.556E-5,0
ONEWEB-0088,2020-020AK,2026-07-23T23:32:45.000096,13.11419219,.00015301,87.8911,13.7134,80.6689,279.4612,0,U,45457,999,30736,.41492287E-3,.16E-5,0
ONEWEB-0102,2020-100A,2026-07-23T19:17:48.603264,13.12444364,.00020707,87.8972,343.3947,102.0219,258.1142,0,U,47258,999,26953,-.10232502E-2,-.355E-5,0
ONEWEB-0109,2020-100B,2026-07-23T19:30:00.504576,13.12444540,.00019998,87.8986,343.3792,95.9591,264.1766,0,U,47259,999,26936,-.44584553E-3,-.148E-5,0
ONEWEB-0110,2020-100C,2026-07-24T07:07:45.215904,13.12444032,.00018812,87.8992,343.2680,106.0010,254.1326,0,U,47260,999,26959,.12797302E-2,.473E-5,0
ONEWEB-0111,2020-100D,2026-07-24T07:51:38.791584,13.12443040,.00017334,87.8979,343.2802,93.8458,266.2869,0,U,47261,999,26943,-.95098656E-3,-.329E-5,0
ONEWEB-0114,2020-100E,2026-07-23T19:47:05.908416,13.12444184,.00019927,87.9006,343.3789,94.8504,265.2852,0,U,47262,999,26932,.49034771E-3,.189E-5,0
ONEWEB-0117,2020-100F,2026-07-23T19:34:53.909472,13.12444024,.0001875,87.8979,343.3697,98.0683,262.0658,0,U,47263,999,26933,-.16092486E-3,-.45E-6,0
ONEWEB-0118,2020-100G,2026-07-24T07:22:23.592864,13.12441701,.00017575,87.8994,343.2761,84.5664,275.5665,0,U,47264,999,26959,.77166421E-3,.29E-5,0
ONEWEB-0119,2020-100H,2026-07-24T07:58:58.279872,13.12442576,.00018439,87.8974,343.2832,97.4097,262.7241,0,U,47265,999,26957,-.10590423E-2,-.368E-5,0
ONEWEB-0120,2020-100J,2026-07-23T08:46:10.581600,13.12443538,.0002005,87.8975,343.4770,94.5049,265.6308,0,U,47266,999,26947,.66233E-3,.251E-5,0
ONEWEB-0121,2020-100K,2026-07-23T19:27:34.525728,13.12443216,.00016619,87.8986,343.3784,105.2400,254.8912,0,U,47267,999,26944,-.55919317E-3,-.188E-5,0
ONEWEB-0122,2020-100L,2026-07-23T19:19:02.583264,13.12442465,.00020159,87.8982,343.3843,98.5539,261.5818,0,U,47268,999,26935,-.10352895E-2,-.36E-5,0
ONEWEB-0123,2020-100M,2026-07-24T06:11:37.203072,13.12443335,.00017805,87.8968,343.2970,93.5452,266.5880,0,U,47269,999,26955,-.10555412E-2,-.367E-5,0
ONEWEB-0124,2020-100N,2026-07-24T07:46:46.087392,13.12442485,.0001757,87.8969,343.2861,99.6344,260.4983,0,U,47270,999,26944,-.68426413E-3,-.233E-5,0
ONEWEB-0125,2020-100P,2026-07-24T07:15:03.440160,13.12467631,.00017785,87.8986,343.2785,88.2993,271.8339,0,U,47271,999,26950,-.11966486E-1,-.4292E-4,0
ONEWEB-0126,2020-100Q,2026-07-24T07:44:32.863776,13.12441916,.00019537,87.8974,343.2874,93.9407,266.1945,0,U,47272,999,26957,-.52226778E-3,-.175E-5,0
ONEWEB-0127,2020-100R,2026-07-24T06:55:32.632032,13.12444301,.00020071,87.8972,343.2919,96.4717,263.6640,0,U,47273,999,26959,.89825379E-3,.336E-5,0
ONEWEB-0128,2020-100S,2026-07-24T07:27:15.428736,13.12442527,.0001968,87.8966,343.3000,108.5519,251.5823,0,U,47274,999,26961,.67659435E-3,.256E-5,0
ONEWEB-0129,2020-100T,2026-07-23T19:59:18.374784,13.12443062,.00028243,87.8987,343.3733,84.3673,275.7778,0,U,47275,999,26948,.11098647E-2,.412E-5,0
