{"epoch":1784902576,"count":18312,"objects":[{"id":"45446","name":"ONEWEB-0068","type":"PAYLOAD","l1":"1 45446U 20020Y   26205.23357693  .00000427  00000-0  11679-2 0  9999","l2":"2 45446  87.8899  13.6892 0001666  96.6598 263.4720 13.11414062307451"},{"id":"45447","name":"ONEWEB-0046","type":"PAYLOAD","l1":"1 45447U 20020Z   26204.99633821  .00000576  00000-0  15883-2 0  9998","l2":"2 45447  87.8890  13.7397 0001575  89.3574 270.7734 13.11418258307431"},{"id":"45448","name":"ONEWEB-0063","type":"PAYLOAD","l1":"1 45448U 20020AA  26204.94900497 -.00000269  00000-0 -79589-3 0  9995","l2":"2 45448  87.8900  13.7512 0001763  82.5105 277.6223 13.11415582307512"},{"id":"45449","name":"ONEWEB-0019","type":"PAYLOAD","l1":"1 45449U 20020AB  26205.21662528  .00000389  00000-0  10610-2 0  9997","l2":"2 45449  87.8892  13.6826 0002012  93.9283 266.2076 13.11418878307398"},{"id":"45450","name":"ONEWEB-0094","type":"PAYLOAD","l1":"1 45450U 20020AC  26204.88012110  .00000115  00000-0  26195-3 0  9990","l2":"2 45450  87.9176 358.5543 0001757 101.8209 258.3119 13.17649968311145"},{"id":"45451","name":"ONEWEB-0087","type":"PAYLOAD","l1":"1 45451U 20020AD  26205.03519203 -.00000484  00000-0 -14006-2 0  9992","l2":"2 45451  87.8908  13.7108 0001620 100.4897 259.6414 13.11417220307417"},{"id":"45452","name":"ONEWEB-0082","type":"PAYLOAD","l1":"1 45452U 20020AE  26204.95550286 -.00000532  00000-0 -15379-2 0  9997","l2":"2 45452  87.8898  13.7405 0001382  98.3432 261.7852 13.11417257307499"},{"id":"45453","name":"ONEWEB-0050","type":"PAYLOAD","l1":"1 45453U 20020AF  26205.06927614  .00001635  00000-0  16537-3 0  9995","l2":"2 45453  88.9283 228.2000 0003799 151.4936 208.6501 14.90492201345873"},{"id":"45454","name":"ONEWEB-0034","type":"PAYLOAD","l1":"1 45454U 20020AG  26204.99311842  .00000524  00000-0  14422-2 0  9993","l2":"2 45454  87.8900  13.7424 0001796  91.1993 268.9341 13.11418714307411"},{"id":"45455","name":"ONEWEB-0060","type":"PAYLOAD","l1":"1 45455U 20020AH  26205.02431899 -.00000301  00000-0 -88381-3 0  9995","l2":"2 45455  87.8896  13.7312 0001609 126.3721 233.7555 13.11415372307374"},{"id":"45456","name":"ONEWEB-0086","type":"PAYLOAD","l1":"1 45456U 20020AJ  26205.23187929  .00000556  00000-0  15328-2 0  9991","l2":"2 45456  87.8900  13.6883 0002136 113.0311 247.1043 13.11417054307467"},{"id":"45457","name":"ONEWEB-0088","type":"PAYLOAD","l1":"1 45457U 20020AK  26204.98107639  .00000160  00000-0  41492-3 0  9996","l2":"2 45457  87.8911  13.7134 0001530  80.6689 279.4612 13.11419219307368"},{"id":"47258","name":"ONEWEB-0102","type":"PAYLOAD","l1":"1 47258U 20100A   26204.80403476 -.00000355  00000-0 -10233-2 0  9991","l2":"2 47258  87.8972 343.3947 0002071 102.0219 258.1142 13.12444364269537"},{"id":"47259","name":"ONEWEB-0109","type":"PAYLOAD","l1":"1 47259U 20100B   26204.81250584 -.00000148  00000-0 -44585-3 0  9991","l2":"2 47259  87.8986 343.3792 0002000  95.9591 264.1766 13.12444540269362"},{"id":"47260","name":"ONEWEB-0110","type":"PAYLOAD","l1":"1 47260U 20100C   26205.29705111  .00000473  00000-0  12797-2 0  9995","l2":"2 47260  87.8992 343.2680 0001881 106.0010 254.1326 13.12444032269594"},{"id":"47261","name":"ONEWEB-0111","type":"PAYLOAD","l1":"1 47261U 20100D   26205.32753231 -.00000329  00000-0 -95099-3 0  9995","l2":"2 47261  87.8979 343.2802 0001733  93.8458 266.2869 13.12443040269438"},{"id":"47262","name":"ONEWEB-0114","type":"PAYLOAD","l1":"1 47262U 20100E   26204.82437394  .00000189  00000-0  49035-3 0  9990","l2":"2 47262  87.9006 343.3789 0001993  94.8504 265.2852 13.12444184269326"},{"id":"47263","name":"ONEWEB-0117","type":"PAYLOAD","l1":"1 47263U 20100F   26204.81590173 -.00000045  00000-0 -16092-3 0  9995","l2":"2 47263  87.8979 343.3697 0001875  98.0683 262.0658 13.12444024269339"},{"id":"47264","name":"ONEWEB-0118","type":"PAYLOAD","l1":"1 47264U 20100G   26205.30721751  .00000290  00000-0  77166-3 0  9998","l2":"2 47264  87.8994 343.2761 0001758  84.5664 275.5665 13.12441701269591"},{"id":"47265","name":"ONEWEB-0119","type":"PAYLOAD","l1":"1 47265U 20100H   26205.33261898 -.00000368  00000-0 -10590-2 0  9998","l2":"2 47265  87.8974 343.2832 0001844  97.4097 262.7241 13.12442576269575"},{"id":"47266","name":"ONEWEB-0120","type":"PAYLOAD","l1":"1 47266U 20100J   26204.36540025  .00000251  00000-0  66233-3 0  9998","l2":"2 47266  87.8975 343.4770 0002005  94.5049 265.6308 13.12443538269479"},{"id":"47267","name":"ONEWEB-0121","type":"PAYLOAD","l1":"1 47267U 20100K   26204.81081627 -.00000188  00000-0 -55919-3 0  9997","l2":"2 47267  87.8986 343.3784 0001662 105.2400 254.8912 13.12443216269446"},{"id":"47268","name":"ONEWEB-0122","type":"PAYLOAD","l1":"1 47268U 20100L   26204.80489101 -.00000360  00000-0 -10353-2 0  9990","l2":"2 47268  87.8982 343.3843 0002016  98.5539 261.5818 13.12442465269355"},{"id":"47269","name":"ONEWEB-0123","type":"PAYLOAD","l1":"1 47269U 20100M   26205.25806948 -.00000367  00000-0 -10555-2 0  9994","l2":"2 47269  87.8968 343.2970 0001780  93.5452 266.5880 13.12443335269559"},{"id":"47270","name":"ONEWEB-0124","type":"PAYLOAD","l1":"1 47270U 20100N   26205.32414453 -.00000233  00000-0 -68426-3 0  9993","l2":"2 47270  87.8969 343.2861 0001757  99.6344 260.4983 13.12442485269442"},{"id":"47271","name":"ONEWEB-0125","type":"PAYLOAD","l1":"1 47271U 20100P   26205.30212315 -.00004292  00000-0 -11966-1 0  9999","l2":"2 47271  87.8986 343.2785 0001778  88.2993 271.8339 13.12467631269502"},{"id":"47272","name":"ONEWEB-0126","type":"PAYLOAD","l1":"1 47272U 20100Q   26205.32260259 -.00000175  00000-0 -52227-3 0  9995","l2":"2 47272  87.8974 343.2874 0001954  93.9407 266.1945 13.12441916269573"},{"id":"47273","name":"ONEWEB-0127","type":"PAYLOAD","l1":"1 47273U 20100R   26205.28857213  .00000336  00000-0  89825-3 0  9994","l2":"2 47273  87.8972 343.2919 0002007  96.4717 263.6640 13.12444301269591"},{"id":"47274","name":"ONEWEB-0128","type":"PAYLOAD","l1":"1 47274U 20100S   26205.31059524  .00000256  00000-0  67659-3 0  9990","l2":"2 47274  87.8966 343.3000 0001968 108.5519 251.5823 13.12442527269617"},{"id":"47275","name":"ONEWEB-0129","type":"PAYLOAD","l1":"1 47275U 20100T   26204.83285156  .00000412  00000-0  11099-2 0  9999","l2":"2 47275  87.8987 343.3733 0002824  84.3673 275.7778 13.12443062269485"}]}